[{"OBJECT_NAME":"OBJECT J","OBJECT_ID":"2023-085J","EPOCH":"2026-03-09T22:47:59.920512","MEAN_MOTION":15.31507187,"ECCENTRICITY":0.00067028,"INCLINATION":97.4828,"RA_OF_ASC_NODE":180.1819,"ARG_OF_PERICENTER":41.7877,"MEAN_ANOMALY":318.3875,"EPHEMERIS_TYPE":0,"CLASSIFICATION_TYPE":"U","NORAD_CAT_ID":57012,"ELEMENT_SET_NO":999,"REV_AT_EPOCH":15156,"BSTAR":0.00064525349,"MEAN_MOTION_DOT":0.00019595,"MEAN_MOTION_DDOT":0},{"OBJECT_NAME":"STARLINK-31140","OBJECT_ID":"2024-011C","EPOCH":"2026-03-09T01:19:39.082944","MEAN_MOTION":15.30197835,"ECCENTRICITY":0.00010797,"INCLINATION":53.1621,"RA_OF_ASC_NODE":16.5875,"ARG_OF_PERICENTER":106.5079,"MEAN_ANOMALY":253.6041,"EPHEMERIS_TYPE":0,"CLASSIFICATION_TYPE":"U","NORAD_CAT_ID":58767,"ELEMENT_SET_NO":999,"REV_AT_EPOCH":12017,"BSTAR":3.9028293e-5,"MEAN_MOTION_DOT":7.97e-6,"MEAN_MOTION_DDOT":0}]
